STARLINK-11707 [DTC]    
1 64328U 25124M   26165.26217549  .00097927  00000+0  75606-3 0  9993
2 64328  42.9990 167.0247 0001763 266.1293  93.9373 15.70891480 58023
STARLINK-11734 [DTC]    
1 64329U 25124N   26165.29919492  .00250020  00000+0  18881-2 0  9999
2 64329  42.9971 166.4263 0000910 199.4286 160.6547 15.70912889 58030
STARLINK-34252          
1 64330U 25124P   26163.66507866  .00020953  00000+0  76822-3 0  9998
2 64330  43.0090 305.5237 0002995 283.3622  76.6896 15.27602351 56308
STARLINK-34050          
1 64331U 25124Q   26165.09329674  .00024311  00000+0  89032-3 0  9996
2 64331  43.0057 297.3146 0002537 273.7646  86.2915 15.27568791 57589
STARLINK-33782          
1 64332U 25124R   26165.08173016  .00022394  00000+0  82070-3 0  9997
2 64332  43.0042 297.2226 0002748 268.1668  91.8869 15.27583869 56524
STARLINK-34207          
1 64333U 25124S   26165.62282738  .00019144  00000+0  70342-3 0  9998
2 64333  43.0016 294.4095 0001349 260.7364  99.3335 15.27578549 56605
STARLINK-34260          
1 64334U 25124T   26165.63054993  .00020016  00000+0  73537-3 0  9999
2 64334  43.0017 294.4668 0002177 269.8025  90.2577 15.27558127 56605
STARLINK-33855          
1 64335U 25124U   26165.66635940  .00015379  00000+0  56707-3 0  9996
2 64335  43.0082 293.8678 0000618 299.6612  60.4178 15.27589733 56617
STARLINK-34223          
1 64336U 25124V   26165.65528059  .00021075  00000+0  77274-3 0  9990
2 64336  43.0025 290.3226 0000772 302.6072  57.4705 15.27599510 56652
STARLINK-34216          
1 64337U 25124W   26165.65222522  .00021066  00000+0  77261-3 0  9993
2 64337  43.0035 293.7587 0000354 296.3680  63.7135 15.27590923 56613
STARLINK-34218          
1 64338U 25124X   26165.07837075  .00025538  00000+0  93392-3 0  9996
2 64338  43.0032 293.7394 0000861 281.6965  78.3790 15.27594701 56564
STARLINK-34017          
1 64339U 25124Y   26164.10864112  .00026249  00000+0  95958-3 0  9992
2 64339  43.0058 302.8172 0002424 268.6695  91.3879 15.27593169 56370
STARLINK-33977          
1 64344U 25126A   26165.35867132  .00012694  00000+0  10689-2 0  9999
2 64344  69.9995 150.6561 0003765 263.6118  96.4613 14.98360336 56375
STARLINK-34426          
1 64345U 25126B   26165.35434107  .00002345  00000+0  20425-3 0  9994
2 64345  69.9998 150.6361 0003438 260.2222  99.8549 14.98333373 55165
STARLINK-34437          
1 64346U 25126C   26165.38355796  .00001110  00000+0  10082-3 0  9991
2 64346  69.9998 150.7402 0003844 264.3976  95.6745 14.98333243 55163
STARLINK-34407          
1 64347U 25126D   26165.38789663  .00000713  00000+0  67520-4 0  9994
2 64347  70.0000 150.7503 0004035 265.2151  94.8547 14.98332824 55166
STARLINK-34274          
1 64348U 25126E   26165.40025416  .00000817  00000+0  76262-4 0  9995
2 64348  69.9997 150.7995 0003907 262.8742  97.1973 14.98332829 55164
STARLINK-34301          
1 64349U 25126F   26165.35851581 -.00001968  00000+0 -15718-3 0  9998
2 64349  70.0003 150.6511 0003800 261.9834  98.0894 14.98323585 55164
STARLINK-34425          
1 64350U 25126G   26165.37939403  .00003771  00000+0  32368-3 0  9994
2 64350  69.9998 150.7226 0003748 269.6290  90.4439 14.98331492 55169
STARLINK-34389          
1 64351U 25126H   26165.36702717  .00003831  00000+0  32865-3 0  9999
2 64351  69.9997 150.6761 0003806 266.6633  93.4090 14.98335005 55165
STARLINK-34385          
1 64352U 25126J   26165.39190502  .00001298  00000+0  11653-3 0  9993
2 64352  69.9999 150.7685 0004064 265.2972  94.7723 14.98331893 55160
STARLINK-34431          
1 64353U 25126K   26165.35450665  .00000195  00000+0  24108-4 0  9994
2 64353  69.9997 150.6395 0002976 262.8189  97.2632 14.98331883 55165
STARLINK-34473          
1 64354U 25126L   26165.36685885  .00009744  00000+0  82296-3 0  9990
2 64354  69.9998 150.6819 0003774 269.1317  90.9410 14.98345377 55165
STARLINK-34270          
1 64355U 25126M   26165.37103784  .00002568  00000+0  22286-3 0  9995
2 64355  69.9997 150.6943 0003708 264.3328  95.7408 14.98343538 56369
STARLINK-34397          
1 64356U 25126N   26165.39607889  .00000649  00000+0  62179-4 0  9997
2 64356  69.9999 150.7803 0003947 263.3506  96.7204 14.98332754 55160
STARLINK-34454          
1 64357U 25126P   26165.33365934  .00000248  00000+0  28548-4 0  9991
2 64357  70.0001 150.9619 0003581 264.0334  96.0417 14.98331471 55159
STARLINK-34436          
1 64358U 25126Q   26165.34615048 -.00005530  00000+0 -45590-3 0  9993
2 64358  69.9994 150.6020 0003694 270.8730  89.2006 14.98336094 55166
STARLINK-34291          
1 64359U 25126R   26165.36285417  .00004276  00000+0  36587-3 0  9999
2 64359  69.9997 150.6599 0003291 262.0212  98.0574 14.98336002 55169
STARLINK-34458          
1 64360U 25126S   26165.37122367  .00003795  00000+0  32563-3 0  9991
2 64360  69.9998 150.6911 0003577 260.4696  99.6059 14.98336899 55164
STARLINK-34243          
1 64361U 25126T   26165.37521006  .00001596  00000+0  14155-3 0  9999
2 64361  69.9999 150.7086 0004007 266.0617  94.0084 14.98333162 55161
